ONEWEB-0126             
1 47272U 20100Q   23259.85057118 -.00000196  00000+0 -57890-3 0  9990
2 47272  87.8994 190.3260 0002010  70.8272 289.3074 13.12442219132962
ONEWEB-0127             
1 47273U 20100R   23259.35610139  .00000172  00000+0  44251-3 0  9993
2 47273  87.9066 190.4182 0001949  73.1381 286.9961 13.12441297132924
ONEWEB-0128             
1 47274U 20100S   23260.36834732 -.00000298  00000+0 -86306-3 0  9992
2 47274  87.9073 190.2040 0002347  72.4890 287.6495 13.12443284133079
ONEWEB-0129             
1 47275U 20100T   23259.35820118  .00000108  00000+0  26535-3 0  9999
2 47275  87.9016 190.4395 0002187  28.5471 331.5777 13.12440537132878
ONEWEB-0130             
1 47276U 20100U   23259.76481098 -.00000358  00000+0 -10308-2 0  9994
2 47276  87.9000 190.3495 0002056  75.8867 284.2490 13.12440654132899
ONEWEB-0131             
1 47277U 20100V   23260.29635078 -.00000293  00000+0 -84898-3 0  9998
2 47277  87.9080 190.2093 0002114  77.6924 282.4441 13.12442864133005
ONEWEB-0132             
1 47278U 20100W   23259.33490099  .00000517  00000+0  14004-2 0  9992
2 47278  87.9080 190.4013 0001936  83.4832 276.6517 13.12445953132778
ONEWEB-0133             
1 47279U 20100X   23259.35186331  .00000348  00000+0  93270-3 0  9991
2 47279  87.9066 190.4241 0002042  78.1251 282.0106 13.12441702132932
